[{"OBJECT_NAME":"SALSAT","OBJECT_ID":"2020-068K","EPOCH":"2026-03-09T22:26:21.804576","MEAN_MOTION":15.28191989,"ECCENTRICITY":0.00082652,"INCLINATION":97.8859,"RA_OF_ASC_NODE":66.0795,"ARG_OF_PERICENTER":295.8051,"MEAN_ANOMALY":64.2334,"EPHEMERIS_TYPE":0,"CLASSIFICATION_TYPE":"U","NORAD_CAT_ID":46495,"ELEMENT_SET_NO":999,"REV_AT_EPOCH":30019,"BSTAR":0.00040842582,"MEAN_MOTION_DOT":0.00011156,"MEAN_MOTION_DDOT":0},{"OBJECT_NAME":"STARLINK-30472","OBJECT_ID":"2023-146L","EPOCH":"2026-03-09T01:39:16.370208","MEAN_MOTION":15.2671741,"ECCENTRICITY":0.00019725,"INCLINATION":43.0003,"RA_OF_ASC_NODE":314.091,"ARG_OF_PERICENTER":252.9974,"MEAN_ANOMALY":107.0662,"EPHEMERIS_TYPE":0,"CLASSIFICATION_TYPE":"U","NORAD_CAT_ID":57901,"ELEMENT_SET_NO":999,"REV_AT_EPOCH":13594,"BSTAR":-0.00021381266,"MEAN_MOTION_DOT":-5.987e-5,"MEAN_MOTION_DDOT":0}]
